{
  "type": "FeatureCollection",
  "features": [
    {
      "type": "Feature",
      "properties": {
        "norad_id": 36585,
        "name": "GPS BIIF-1  (PRN 25)",
        "group": "gnss",
        "lat": -26.933282434121207,
        "lon": -165.72983975769216,
        "alt_km": 20235.37196545252,
        "timestamp": "2025-12-22T09:53:37.646824+00:00",
        "meta_object_name": "GPS BIIF-1  (PRN 25)",
        "meta_object_id": "2010-022A",
        "meta_epoch": "2025-12-21T16:53:11.559264",
        "meta_mean_motion": 2.00553691,
        "meta_eccentricity": 0.0126473,
        "meta_inclination": 54.2987,
        "meta_ra_of_asc_node": 215.7124,
        "meta_arg_of_pericenter": 65.1878,
        "meta_mean_anomaly": 110.7719,
        "meta_ephemeris_type": 0,
        "meta_classification_type": "U",
        "meta_norad_cat_id": 36585,
        "meta_element_set_no": 999,
        "meta_rev_at_epoch": 11403,
        "meta_bstar": 0,
        "meta_mean_motion_dot": 7.5e-07,
        "meta_mean_motion_ddot": 0,
        "tle_line1": "1 36585U 10022A   25355.70360601  .00000075  00000+0  00000+0 0  9995",
        "tle_line2": "2 36585  54.2987 215.7124 0126473  65.1878 110.7719  2.00553691114030"
      },
      "geometry": {
        "type": "Point",
        "coordinates": [
          -165.72983975769216,
          -26.933282434121207
        ]
      }
    },
    {
      "type": "Feature",
      "properties": {
        "norad_id": 36828,
        "name": "BEIDOU-2 IGSO-1 (C06)",
        "group": "gnss",
        "lat": -2.2717756034070504,
        "lon": -13.817222548845313,
        "alt_km": 35599.981432439294,
        "timestamp": "2025-12-22T09:53:37.646835+00:00",
        "meta_object_name": "BEIDOU-2 IGSO-1 (C06)",
        "meta_object_id": "2010-036A",
        "meta_epoch": "2025-12-20T21:47:26.739168",
        "meta_mean_motion": 1.00282395,
        "meta_eccentricity": 0.0051798,
        "meta_inclination": 54.2882,
        "meta_ra_of_asc_node": 164.5739,
        "meta_arg_of_pericenter": 215.2932,
        "meta_mean_anomaly": 144.6604,
        "meta_ephemeris_type": 0,
        "meta_classification_type": "U",
        "meta_norad_cat_id": 36828,
        "meta_element_set_no": 999,
        "meta_rev_at_epoch": 5631,
        "meta_bstar": 0,
        "meta_mean_motion_dot": -5.5e-07,
        "meta_mean_motion_ddot": 0,
        "tle_line1": "1 36828U 10036A   25354.90794837 -.00000055  00000+0  00000+0 0  9992",
        "tle_line2": "2 36828  54.2882 164.5739 0051798 215.2932 144.6604  1.00282395 56317"
      },
      "geometry": {
        "type": "Point",
        "coordinates": [
          -13.817222548845313,
          -2.2717756034070504
        ]
      }
    },
    {
      "type": "Feature",
      "properties": {
        "norad_id": 37210,
        "name": "BEIDOU-2 G4 (C04)",
        "group": "gnss",
        "lat": -1.597069590826497,
        "lon": 39.826019026538255,
        "alt_km": 35818.288594997925,
        "timestamp": "2025-12-22T09:53:37.646848+00:00",
        "meta_object_name": "BEIDOU-2 G4 (C04)",
        "meta_object_id": "2010-057A",
        "meta_epoch": "2025-12-21T20:48:27.892800",
        "meta_mean_motion": 1.00271946,
        "meta_eccentricity": 0.0010411,
        "meta_inclination": 3.2059,
        "meta_ra_of_asc_node": 69.9044,
        "meta_arg_of_pericenter": 193.1745,
        "meta_mean_anomaly": 299.8023,
        "meta_ephemeris_type": 0,
        "meta_classification_type": "U",
        "meta_norad_cat_id": 37210,
        "meta_element_set_no": 999,
        "meta_rev_at_epoch": 5551,
        "meta_bstar": 0,
        "meta_mean_motion_dot": -9.1e-07,
        "meta_mean_motion_ddot": 0,
        "tle_line1": "1 37210U 10057A   25355.86698950 -.00000091  00000+0  00000+0 0  9996",
        "tle_line2": "2 37210   3.2059  69.9044 0010411 193.1745 299.8023  1.00271946 55512"
      },
      "geometry": {
        "type": "Point",
        "coordinates": [
          39.826019026538255,
          -1.597069590826497
        ]
      }
    },
    {
      "type": "Feature",
      "properties": {
        "norad_id": 37256,
        "name": "BEIDOU-2 IGSO-2 (C07)",
        "group": "gnss",
        "lat": 45.26600198181051,
        "lon": -20.24139557828505,
        "alt_km": 35940.891263502046,
        "timestamp": "2025-12-22T09:53:37.646860+00:00",
        "meta_object_name": "BEIDOU-2 IGSO-2 (C07)",
        "meta_object_id": "2010-068A",
        "meta_epoch": "2025-12-21T17:07:55.147872",
        "meta_mean_motion": 1.00283664,
        "meta_eccentricity": 0.0048543,
        "meta_inclination": 47.8695,
        "meta_ra_of_asc_node": 274.0391,
        "meta_arg_of_pericenter": 216.3693,
        "meta_mean_anomaly": 325.0635,
        "meta_ephemeris_type": 0,
        "meta_classification_type": "U",
        "meta_norad_cat_id": 37256,
        "meta_element_set_no": 999,
        "meta_rev_at_epoch": 5501,
        "meta_bstar": 0,
        "meta_mean_motion_dot": -1.86e-06,
        "meta_mean_motion_ddot": 0,
        "tle_line1": "1 37256U 10068A   25355.71383273 -.00000186  00000+0  00000+0 0  9996",
        "tle_line2": "2 37256  47.8695 274.0391 0048543 216.3693 325.0635  1.00283664 55019"
      },
      "geometry": {
        "type": "Point",
        "coordinates": [
          -20.24139557828505,
          45.26600198181051
        ]
      }
    },
    {
      "type": "Feature",
      "properties": {
        "norad_id": 37384,
        "name": "BEIDOU-2 IGSO-3 (C08)",
        "group": "gnss",
        "lat": -46.13352132065163,
        "lon": 8.52619727548378,
        "alt_km": 35861.29547704635,
        "timestamp": "2025-12-22T09:53:37.646871+00:00",
        "meta_object_name": "BEIDOU-2 IGSO-3 (C08)",
        "meta_object_id": "2011-013A",
        "meta_epoch": "2025-12-21T13:47:18.522816",
        "meta_mean_motion": 1.00268792,
        "meta_eccentricity": 0.00353792,
        "meta_inclination": 62.1546,
        "meta_ra_of_asc_node": 41.8324,
        "meta_arg_of_pericenter": 187.6182,
        "meta_mean_anomaly": 175.1134,
        "meta_ephemeris_type": 0,
        "meta_classification_type": "U",
        "meta_norad_cat_id": 37384,
        "meta_element_set_no": 999,
        "meta_rev_at_epoch": 5388,
        "meta_bstar": 0,
        "meta_mean_motion_dot": -1.61e-06,
        "meta_mean_motion_ddot": 0,
        "tle_line1": "1 37384U 11013A   25355.57451994 -.00000161  00000+0  00000+0 0  9992",
        "tle_line2": "2 37384  62.1546  41.8324 0035379 187.6182 175.1134  1.00268792 53884"
      },
      "geometry": {
        "type": "Point",
        "coordinates": [
          8.52619727548378,
          -46.13352132065163
        ]
      }
    },
    {
      "type": "Feature",
      "properties": {
        "norad_id": 37605,
        "name": "GSAT-8 (GAGAN/PRN 127)",
        "group": "gnss",
        "lat": -0.8772009025527167,
        "lon": -65.27799027530921,
        "alt_km": 35752.36963198079,
        "timestamp": "2025-12-22T09:53:37.646883+00:00",
        "meta_object_name": "GSAT-8 (GAGAN/PRN 127)",
        "meta_object_id": "2011-022A",
        "meta_epoch": "2025-12-22T03:09:20.634048",
        "meta_mean_motion": 1.00270864,
        "meta_eccentricity": 0.0008864,
        "meta_inclination": 1.6725,
        "meta_ra_of_asc_node": 84.0981,
        "meta_arg_of_pericenter": 185.6331,
        "meta_mean_anomaly": 283.6166,
        "meta_ephemeris_type": 0,
        "meta_classification_type": "U",
        "meta_norad_cat_id": 37605,
        "meta_element_set_no": 999,
        "meta_rev_at_epoch": 5144,
        "meta_bstar": 0,
        "meta_mean_motion_dot": 1.06e-06,
        "meta_mean_motion_ddot": 0,
        "tle_line1": "1 37605U 11022A   25356.13148882  .00000106  00000+0  00000+0 0  9998",
        "tle_line2": "2 37605   1.6725  84.0981 0008864 185.6331 283.6166  1.00270864 51441"
      },
      "geometry": {
        "type": "Point",
        "coordinates": [
          -65.27799027530921,
          -0.8772009025527167
        ]
      }
    },
    {
      "type": "Feature",
      "properties": {
        "norad_id": 37763,
        "name": "BEIDOU-2 IGSO-4 (C09)",
        "group": "gnss",
        "lat": 11.721321983830258,
        "lon": -21.253626478344678,
        "alt_km": 35505.83714419846,
        "timestamp": "2025-12-22T09:53:37.646895+00:00",
        "meta_object_name": "BEIDOU-2 IGSO-4 (C09)",
        "meta_object_id": "2011-038A",
        "meta_epoch": "2025-12-21T10:06:26.864064",
        "meta_mean_motion": 1.00280083,
        "meta_eccentricity": 0.01491557,
        "meta_inclination": 54.5854,
        "meta_ra_of_asc_node": 167.2693,
        "meta_arg_of_pericenter": 230.0944,
        "meta_mean_anomaly": 299.1265,
        "meta_ephemeris_type": 0,
        "meta_classification_type": "U",
        "meta_norad_cat_id": 37763,
        "meta_element_set_no": 999,
        "meta_rev_at_epoch": 5286,
        "meta_bstar": 0,
        "meta_mean_motion_dot": 5.9e-07,
        "meta_mean_motion_ddot": 0,
        "tle_line1": "1 37763U 11038A   25355.42114426  .00000059  00000+0  00000+0 0  9995",
        "tle_line2": "2 37763  54.5854 167.2693 0149155 230.0944 299.1265  1.00280083 52867"
      },
      "geometry": {
        "type": "Point",
        "coordinates": [
          -21.253626478344678,
          11.721321983830258
        ]
      }
    }
  ]
}